ONEWEB-0323             
1 49106U 21075AH  26072.28691030  .00000238  00000+0  62513-3 0  9993
2 49106  87.9009   9.6819 0001615  57.8850 302.2435 13.12441980221977
ONEWEB-0329             
1 49107U 21075AJ  26072.27446786  .00000047  00000+0  86995-4 0  9998
2 49107  87.9158  24.9142 0001889  75.5800 284.5541 13.17648715220954
ONEWEB-0330             
1 49108U 21075AK  26072.66667824  .00023174  00000+0  60905-1 0  9996
2 49108  87.9153  24.8472 0002145  77.0387 310.9841 13.16063684  5120
ONEWEB-0292             
1 49186U 21083A   26072.25795416  .00000311  00000+0  81754-3 0  9990
2 49186  87.9024 339.3339 0001550  73.3167 286.8132 13.13473842218334
ONEWEB-0303             
1 49187U 21083B   26072.32026892  .00000030  00000+0  43000-4 0  9995
2 49187  87.9256 354.5003 0001671  73.1033 287.0282 13.18686235217349
ONEWEB-0306             
1 49188U 21083C   26072.31037082  .00000016  00000+0  86591-5 0  9995
2 49188  87.9252 354.4859 0001989  83.8632 276.2727 13.18686239217381
ONEWEB-0307             
1 49189U 21083D   26072.25204460  .00000315  00000+0  82748-3 0  9995
2 49189  87.9022 339.3244 0001730  79.0000 281.1324 13.13471242218332
ONEWEB-0320             
1 49190U 21083E   26072.32618536  .00000041  00000+0  71023-4 0  9999
2 49190  87.9242 354.5085 0001811  77.3685 282.7649 13.18133254217340
ONEWEB-0321             
1 49191U 21083F   26072.59585151 -.00000004  00000+0 -40877-4 0  9999
2 49191  87.9164 293.5232 0001928  92.1292 268.0062 13.20770129224219
ONEWEB-0322             
1 49192U 21083G   26072.24780790  .00000224  00000+0  57848-3 0  9995
2 49192  87.9024 339.3298 0001918  93.2749 266.8600 13.13471424218321
ONEWEB-0324             
1 49193U 21083H   26072.30377450  .00000011  00000+0 -48432-5 0  9994
2 49193  87.9250 354.4928 0001938  75.5887 284.5460 13.18686013217360
ONEWEB-0325             
1 49194U 21083J   26072.30707837 -.00000022  00000+0 -87722-4 0  9998
2 49194  87.9244 354.5087 0001754  80.7166 279.4165 13.18686760217370
ONEWEB-0326             
1 49195U 21083K   26072.32205076  .00000186  00000+0  44030-3 0  9992
2 49195  87.9246 354.4959 0001585  73.2137 286.9169 13.18686371217361
ONEWEB-0327             
1 49196U 21083L   26072.32176546  .00000028  00000+0  39193-4 0  9992
2 49196  87.9242 354.5078 0001400  74.6898 285.4389 13.18685888217388
ONEWEB-0328             
1 49197U 21083M   26072.23764818 -.00000097  00000+0 -30089-3 0  9990
2 49197  87.9037 339.2933 0001802  78.1388 281.9943 13.13470579218304
ONEWEB-0331             
1 49198U 21083N   26072.31532355  .00000034  00000+0  52801-4 0  9995
2 49198  87.9254 354.4900 0001680  69.2155 290.9157 13.18686971217379
ONEWEB-0333             
1 49199U 21083P   26072.23256724 -.00000184  00000+0 -53842-3 0  9993
2 49199  87.9025 339.3313 0001690  78.6948 281.4371 13.13471055218319
