[{"OBJECT_NAME":"ONEWEB-0323","OBJECT_ID":"2021-075AH","EPOCH":"2026-03-13T06:53:09.049920","MEAN_MOTION":13.1244198,"ECCENTRICITY":0.00016152,"INCLINATION":87.9009,"RA_OF_ASC_NODE":9.6819,"ARG_OF_PERICENTER":57.885,"MEAN_ANOMALY":302.2435,"EPHEMERIS_TYPE":0,"CLASSIFICATION_TYPE":"U","NORAD_CAT_ID":49106,"ELEMENT_SET_NO":999,"REV_AT_EPOCH":22197,"BSTAR":0.00062513408,"MEAN_MOTION_DOT":2.38e-6,"MEAN_MOTION_DDOT":0},{"OBJECT_NAME":"ONEWEB-0329","OBJECT_ID":"2021-075AJ","EPOCH":"2026-03-13T06:35:14.023104","MEAN_MOTION":13.17648715,"ECCENTRICITY":0.0001889,"INCLINATION":87.9158,"RA_OF_ASC_NODE":24.9142,"ARG_OF_PERICENTER":75.58,"MEAN_ANOMALY":284.5541,"EPHEMERIS_TYPE":0,"CLASSIFICATION_TYPE":"U","NORAD_CAT_ID":49107,"ELEMENT_SET_NO":999,"REV_AT_EPOCH":22095,"BSTAR":8.6994951e-5,"MEAN_MOTION_DOT":4.7e-7,"MEAN_MOTION_DDOT":0},{"OBJECT_NAME":"ONEWEB-0330","OBJECT_ID":"2021-075AK","EPOCH":"2026-03-13T16:00:00.999936","MEAN_MOTION":13.16063684,"ECCENTRICITY":0.00021457,"INCLINATION":87.9153,"RA_OF_ASC_NODE":24.8472,"ARG_OF_PERICENTER":77.0387,"MEAN_ANOMALY":310.9841,"EPHEMERIS_TYPE":0,"CLASSIFICATION_TYPE":"U","NORAD_CAT_ID":49108,"ELEMENT_SET_NO":999,"REV_AT_EPOCH":512,"BSTAR":0.06090511,"MEAN_MOTION_DOT":0.00023174,"MEAN_MOTION_DDOT":0},{"OBJECT_NAME":"ONEWEB-0292","OBJECT_ID":"2021-083A","EPOCH":"2026-03-13T06:11:27.239424","MEAN_MOTION":13.13473842,"ECCENTRICITY":0.00015507,"INCLINATION":87.9024,"RA_OF_ASC_NODE":339.3339,"ARG_OF_PERICENTER":73.3167,"MEAN_ANOMALY":286.8132,"EPHEMERIS_TYPE":0,"CLASSIFICATION_TYPE":"U","NORAD_CAT_ID":49186,"ELEMENT_SET_NO":999,"REV_AT_EPOCH":21833,"BSTAR":0.00081753759,"MEAN_MOTION_DOT":3.11e-6,"MEAN_MOTION_DDOT":0},{"OBJECT_NAME":"ONEWEB-0303","OBJECT_ID":"2021-083B","EPOCH":"2026-03-13T07:41:11.234688","MEAN_MOTION":13.18686235,"ECCENTRICITY":0.00016714,"INCLINATION":87.9256,"RA_OF_ASC_NODE":354.5003,"ARG_OF_PERICENTER":73.1033,"MEAN_ANOMALY":287.0282,"EPHEMERIS_TYPE":0,"CLASSIFICATION_TYPE":"U","NORAD_CAT_ID":49187,"ELEMENT_SET_NO":999,"REV_AT_EPOCH":21734,"BSTAR":4.2999684e-5,"MEAN_MOTION_DOT":3.0e-7,"MEAN_MOTION_DDOT":0},{"OBJECT_NAME":"ONEWEB-0306","OBJECT_ID":"2021-083C","EPOCH":"2026-03-13T07:26:56.038848","MEAN_MOTION":13.18686239,"ECCENTRICITY":0.00019898,"INCLINATION":87.9252,"RA_OF_ASC_NODE":354.4859,"ARG_OF_PERICENTER":83.8632,"MEAN_ANOMALY":276.2727,"EPHEMERIS_TYPE":0,"CLASSIFICATION_TYPE":"U","NORAD_CAT_ID":49188,"ELEMENT_SET_NO":999,"REV_AT_EPOCH":21738,"BSTAR":8.659052e-6,"MEAN_MOTION_DOT":1.6e-7,"MEAN_MOTION_DDOT":0},{"OBJECT_NAME":"ONEWEB-0307","OBJECT_ID":"2021-083D","EPOCH":"2026-03-13T06:02:56.653440","MEAN_MOTION":13.13471242,"ECCENTRICITY":0.00017307,"INCLINATION":87.9022,"RA_OF_ASC_NODE":339.3244,"ARG_OF_PERICENTER":79,"MEAN_ANOMALY":281.1324,"EPHEMERIS_TYPE":0,"CLASSIFICATION_TYPE":"U","NORAD_CAT_ID":49189,"ELEMENT_SET_NO":999,"REV_AT_EPOCH":21833,"BSTAR":0.00082748147,"MEAN_MOTION_DOT":3.15e-6,"MEAN_MOTION_DDOT":0},{"OBJECT_NAME":"ONEWEB-0320","OBJECT_ID":"2021-083E","EPOCH":"2026-03-13T07:49:42.415104","MEAN_MOTION":13.18133254,"ECCENTRICITY":0.00018112,"INCLINATION":87.9242,"RA_OF_ASC_NODE":354.5085,"ARG_OF_PERICENTER":77.3685,"MEAN_ANOMALY":282.7649,"EPHEMERIS_TYPE":0,"CLASSIFICATION_TYPE":"U","NORAD_CAT_ID":49190,"ELEMENT_SET_NO":999,"REV_AT_EPOCH":21734,"BSTAR":7.1022582e-5,"MEAN_MOTION_DOT":4.1e-7,"MEAN_MOTION_DDOT":0},{"OBJECT_NAME":"ONEWEB-0321","OBJECT_ID":"2021-083F","EPOCH":"2026-03-13T14:18:01.570464","MEAN_MOTION":13.20770129,"ECCENTRICITY":0.00019285,"INCLINATION":87.9164,"RA_OF_ASC_NODE":293.5232,"ARG_OF_PERICENTER":92.1292,"MEAN_ANOMALY":268.0062,"EPHEMERIS_TYPE":0,"CLASSIFICATION_TYPE":"U","NORAD_CAT_ID":49191,"ELEMENT_SET_NO":999,"REV_AT_EPOCH":22421,"BSTAR":-4.0877325e-5,"MEAN_MOTION_DOT":-4.0e-8,"MEAN_MOTION_DDOT":0},{"OBJECT_NAME":"ONEWEB-0322","OBJECT_ID":"2021-083G","EPOCH":"2026-03-13T05:56:50.602560","MEAN_MOTION":13.13471424,"ECCENTRICITY":0.0001918,"INCLINATION":87.9024,"RA_OF_ASC_NODE":339.3298,"ARG_OF_PERICENTER":93.2749,"MEAN_ANOMALY":266.86,"EPHEMERIS_TYPE":0,"CLASSIFICATION_TYPE":"U","NORAD_CAT_ID":49192,"ELEMENT_SET_NO":999,"REV_AT_EPOCH":21832,"BSTAR":0.00057848246,"MEAN_MOTION_DOT":2.24e-6,"MEAN_MOTION_DDOT":0},{"OBJECT_NAME":"ONEWEB-0324","OBJECT_ID":"2021-083H","EPOCH":"2026-03-13T07:17:26.116800","MEAN_MOTION":13.18686013,"ECCENTRICITY":0.00019384,"INCLINATION":87.925,"RA_OF_ASC_NODE":354.4928,"ARG_OF_PERICENTER":75.5887,"MEAN_ANOMALY":284.546,"EPHEMERIS_TYPE":0,"CLASSIFICATION_TYPE":"U","NORAD_CAT_ID":49193,"ELEMENT_SET_NO":999,"REV_AT_EPOCH":21736,"BSTAR":-4.84317e-6,"MEAN_MOTION_DOT":1.1e-7,"MEAN_MOTION_DDOT":0},{"OBJECT_NAME":"ONEWEB-0325","OBJECT_ID":"2021-083J","EPOCH":"2026-03-13T07:22:11.571168","MEAN_MOTION":13.1868676,"ECCENTRICITY":0.00017541,"INCLINATION":87.9244,"RA_OF_ASC_NODE":354.5087,"ARG_OF_PERICENTER":80.7166,"MEAN_ANOMALY":279.4165,"EPHEMERIS_TYPE":0,"CLASSIFICATION_TYPE":"U","NORAD_CAT_ID":49194,"ELEMENT_SET_NO":999,"REV_AT_EPOCH":21737,"BSTAR":-8.7722163e-5,"MEAN_MOTION_DOT":-2.2e-7,"MEAN_MOTION_DDOT":0},{"OBJECT_NAME":"ONEWEB-0326","OBJECT_ID":"2021-083K","EPOCH":"2026-03-13T07:43:45.185664","MEAN_MOTION":13.18686371,"ECCENTRICITY":0.00015856,"INCLINATION":87.9246,"RA_OF_ASC_NODE":354.4959,"ARG_OF_PERICENTER":73.2137,"MEAN_ANOMALY":286.9169,"EPHEMERIS_TYPE":0,"CLASSIFICATION_TYPE":"U","NORAD_CAT_ID":49195,"ELEMENT_SET_NO":999,"REV_AT_EPOCH":21736,"BSTAR":0.00044029953,"MEAN_MOTION_DOT":1.86e-6,"MEAN_MOTION_DDOT":0},{"OBJECT_NAME":"ONEWEB-0327","OBJECT_ID":"2021-083L","EPOCH":"2026-03-13T07:43:20.535744","MEAN_MOTION":13.18685888,"ECCENTRICITY":0.00014006,"INCLINATION":87.9242,"RA_OF_ASC_NODE":354.5078,"ARG_OF_PERICENTER":74.6898,"MEAN_ANOMALY":285.4389,"EPHEMERIS_TYPE":0,"CLASSIFICATION_TYPE":"U","NORAD_CAT_ID":49196,"ELEMENT_SET_NO":999,"REV_AT_EPOCH":21738,"BSTAR":3.9192509e-5,"MEAN_MOTION_DOT":2.8e-7,"MEAN_MOTION_DDOT":0},{"OBJECT_NAME":"ONEWEB-0328","OBJECT_ID":"2021-083M","EPOCH":"2026-03-13T05:42:12.802752","MEAN_MOTION":13.13470579,"ECCENTRICITY":0.00018029,"INCLINATION":87.9037,"RA_OF_ASC_NODE":339.2933,"ARG_OF_PERICENTER":78.1388,"MEAN_ANOMALY":281.9943,"EPHEMERIS_TYPE":0,"CLASSIFICATION_TYPE":"U","NORAD_CAT_ID":49197,"ELEMENT_SET_NO":999,"REV_AT_EPOCH":21830,"BSTAR":-0.00030088699,"MEAN_MOTION_DOT":-9.7e-7,"MEAN_MOTION_DDOT":0},{"OBJECT_NAME":"ONEWEB-0331","OBJECT_ID":"2021-083N","EPOCH":"2026-03-13T07:34:03.954720","MEAN_MOTION":13.18686971,"ECCENTRICITY":0.00016802,"INCLINATION":87.9254,"RA_OF_ASC_NODE":354.49,"ARG_OF_PERICENTER":69.2155,"MEAN_ANOMALY":290.9157,"EPHEMERIS_TYPE":0,"CLASSIFICATION_TYPE":"U","NORAD_CAT_ID":49198,"ELEMENT_SET_NO":999,"REV_AT_EPOCH":21737,"BSTAR":5.2801467e-5,"MEAN_MOTION_DOT":3.4e-7,"MEAN_MOTION_DDOT":0},{"OBJECT_NAME":"ONEWEB-0333","OBJECT_ID":"2021-083P","EPOCH":"2026-03-13T05:34:53.809536","MEAN_MOTION":13.13471055,"ECCENTRICITY":0.00016909,"INCLINATION":87.9025,"RA_OF_ASC_NODE":339.3313,"ARG_OF_PERICENTER":78.6948,"MEAN_ANOMALY":281.4371,"EPHEMERIS_TYPE":0,"CLASSIFICATION_TYPE":"U","NORAD_CAT_ID":49199,"ELEMENT_SET_NO":999,"REV_AT_EPOCH":21831,"BSTAR":-0.00053842016,"MEAN_MOTION_DOT":-1.84e-6,"MEAN_MOTION_DDOT":0}]
